{
  "type": "FeatureCollection",
  "features": [
    {
      "type": "Feature",
      "properties": {
        "norad_id": 58647,
        "name": "TIANMU-1 13",
        "group": "weather",
        "lat": -74.45972580422726,
        "lon": 25.362717170641705,
        "alt_km": 496.07458275160843,
        "timestamp": "2025-12-03T20:47:57.859604+00:00",
        "meta_object_name": "TIANMU-1 13",
        "meta_object_id": "2023-205C",
        "meta_epoch": "2025-12-03T13:15:21.375072",
        "meta_mean_motion": 15.24338784,
        "meta_eccentricity": 0.0006388,
        "meta_inclination": 97.3627,
        "meta_ra_of_asc_node": 357.3442,
        "meta_arg_of_pericenter": 308.6666,
        "meta_mean_anomaly": 51.4,
        "meta_ephemeris_type": 0,
        "meta_classification_type": "U",
        "meta_norad_cat_id": 58647,
        "meta_element_set_no": 999,
        "meta_rev_at_epoch": 10767,
        "meta_bstar": 0.000384,
        "meta_mean_motion_dot": 9.333e-05,
        "meta_mean_motion_ddot": 0,
        "tle_line1": "1 58647U 23205C   25337.55233073  .00009333  00000+0  38400-3 0  9995",
        "tle_line2": "2 58647  97.3627 357.3442 0006388 308.6666  51.4000 15.24338784107670"
      },
      "geometry": {
        "type": "Point",
        "coordinates": [
          25.362717170641705,
          -74.45972580422726
        ]
      }
    },
    {
      "type": "Feature",
      "properties": {
        "norad_id": 58648,
        "name": "TIANMU-1 14",
        "group": "weather",
        "lat": 15.17139169314566,
        "lon": -4.9975736399561255,
        "alt_km": 491.4890171278457,
        "timestamp": "2025-12-03T20:47:57.859617+00:00",
        "meta_object_name": "TIANMU-1 14",
        "meta_object_id": "2023-205D",
        "meta_epoch": "2025-12-03T12:51:18.546912",
        "meta_mean_motion": 15.24323414,
        "meta_eccentricity": 0.0007291,
        "meta_inclination": 97.3559,
        "meta_ra_of_asc_node": 356.685,
        "meta_arg_of_pericenter": 312.9838,
        "meta_mean_anomaly": 47.0788,
        "meta_ephemeris_type": 0,
        "meta_classification_type": "U",
        "meta_norad_cat_id": 58648,
        "meta_element_set_no": 999,
        "meta_rev_at_epoch": 10767,
        "meta_bstar": 0.00038682,
        "meta_mean_motion_dot": 9.399e-05,
        "meta_mean_motion_ddot": 0,
        "tle_line1": "1 58648U 23205D   25337.53563133  .00009399  00000+0  38682-3 0  9991",
        "tle_line2": "2 58648  97.3559 356.6850 0007291 312.9838  47.0788 15.24323414107671"
      },
      "geometry": {
        "type": "Point",
        "coordinates": [
          -4.9975736399561255,
          15.17139169314566
        ]
      }
    },
    {
      "type": "Feature",
      "properties": {
        "norad_id": 58660,
        "name": "TIANMU-1 19",
        "group": "weather",
        "lat": 14.909841398539921,
        "lon": -89.08302821024273,
        "alt_km": 485.7254841391323,
        "timestamp": "2025-12-03T20:47:57.859628+00:00",
        "meta_object_name": "TIANMU-1 19",
        "meta_object_id": "2023-208A",
        "meta_epoch": "2025-12-03T12:13:08.842368",
        "meta_mean_motion": 15.27577668,
        "meta_eccentricity": 0.0004083,
        "meta_inclination": 97.4394,
        "meta_ra_of_asc_node": 88.5665,
        "meta_arg_of_pericenter": 294.3559,
        "meta_mean_anomaly": 65.7253,
        "meta_ephemeris_type": 0,
        "meta_classification_type": "U",
        "meta_norad_cat_id": 58660,
        "meta_element_set_no": 999,
        "meta_rev_at_epoch": 10741,
        "meta_bstar": 0.00048021,
        "meta_mean_motion_dot": 0.00012888,
        "meta_mean_motion_ddot": 0,
        "tle_line1": "1 58660U 23208A   25337.50913012  .00012888  00000+0  48021-3 0  9995",
        "tle_line2": "2 58660  97.4394  88.5665 0004083 294.3559  65.7253 15.27577668107418"
      },
      "geometry": {
        "type": "Point",
        "coordinates": [
          -89.08302821024273,
          14.909841398539921
        ]
      }
    },
    {
      "type": "Feature",
      "properties": {
        "norad_id": 58661,
        "name": "TIANMU-1 20",
        "group": "weather",
        "lat": -20.98672840621482,
        "lon": -93.50843313438673,
        "alt_km": 485.75804219447946,
        "timestamp": "2025-12-03T20:47:57.859638+00:00",
        "meta_object_name": "TIANMU-1 20",
        "meta_object_id": "2023-208B",
        "meta_epoch": "2025-12-03T12:04:03.264384",
        "meta_mean_motion": 15.28770326,
        "meta_eccentricity": 0.0006453,
        "meta_inclination": 97.433,
        "meta_ra_of_asc_node": 88.9989,
        "meta_arg_of_pericenter": 304.4928,
        "meta_mean_anomaly": 55.5702,
        "meta_ephemeris_type": 0,
        "meta_classification_type": "U",
        "meta_norad_cat_id": 58661,
        "meta_element_set_no": 999,
        "meta_rev_at_epoch": 10748,
        "meta_bstar": 0.0004568,
        "meta_mean_motion_dot": 0.00012715,
        "meta_mean_motion_ddot": 0,
        "tle_line1": "1 58661U 23208B   25337.50281556  .00012715  00000+0  45680-3 0  9994",
        "tle_line2": "2 58661  97.4330  88.9989 0006453 304.4928  55.5702 15.28770326107488"
      },
      "geometry": {
        "type": "Point",
        "coordinates": [
          -93.50843313438673,
          -20.98672840621482
        ]
      }
    },
    {
      "type": "Feature",
      "properties": {
        "norad_id": 58662,
        "name": "TIANMU-1 21",
        "group": "weather",
        "lat": 52.853317890724895,
        "lon": -78.83889593457712,
        "alt_km": 471.23911153316476,
        "timestamp": "2025-12-03T20:47:57.859648+00:00",
        "meta_object_name": "TIANMU-1 21",
        "meta_object_id": "2023-208C",
        "meta_epoch": "2025-12-03T12:24:25.159104",
        "meta_mean_motion": 15.3123509,
        "meta_eccentricity": 0.000597,
        "meta_inclination": 97.4378,
        "meta_ra_of_asc_node": 90.8804,
        "meta_arg_of_pericenter": 298.7466,
        "meta_mean_anomaly": 61.3174,
        "meta_ephemeris_type": 0,
        "meta_classification_type": "U",
        "meta_norad_cat_id": 58662,
        "meta_element_set_no": 999,
        "meta_rev_at_epoch": 10758,
        "meta_bstar": 0.00050431,
        "meta_mean_motion_dot": 0.00015158,
        "meta_mean_motion_ddot": 0,
        "tle_line1": "1 58662U 23208C   25337.51695786  .00015158  00000+0  50431-3 0  9994",
        "tle_line2": "2 58662  97.4378  90.8804 0005970 298.7466  61.3174 15.31235090107581"
      },
      "geometry": {
        "type": "Point",
        "coordinates": [
          -78.83889593457712,
          52.853317890724895
        ]
      }
    },
    {
      "type": "Feature",
      "properties": {
        "norad_id": 58663,
        "name": "TIANMU-1 22",
        "group": "weather",
        "lat": 6.200938524965878,
        "lon": -90.20038495903258,
        "alt_km": 487.87685934655474,
        "timestamp": "2025-12-03T20:47:57.859658+00:00",
        "meta_object_name": "TIANMU-1 22",
        "meta_object_id": "2023-208D",
        "meta_epoch": "2025-12-03T12:10:46.959744",
        "meta_mean_motion": 15.27351385,
        "meta_eccentricity": 0.0003058,
        "meta_inclination": 97.4388,
        "meta_ra_of_asc_node": 88.6281,
        "meta_arg_of_pericenter": 330.724,
        "meta_mean_anomaly": 29.3827,
        "meta_ephemeris_type": 0,
        "meta_classification_type": "U",
        "meta_norad_cat_id": 58663,
        "meta_element_set_no": 999,
        "meta_rev_at_epoch": 10742,
        "meta_bstar": 0.00045441,
        "meta_mean_motion_dot": 0.00012105,
        "meta_mean_motion_ddot": 0,
        "tle_line1": "1 58663U 23208D   25337.50748796  .00012105  00000+0  45441-3 0  9998",
        "tle_line2": "2 58663  97.4388  88.6281 0003058 330.7240  29.3827 15.27351385107422"
      },
      "geometry": {
        "type": "Point",
        "coordinates": [
          -90.20038495903258,
          6.200938524965878
        ]
      }
    },
    {
      "type": "Feature",
      "properties": {
        "norad_id": 58700,
        "name": "TIANMU-1 15",
        "group": "weather",
        "lat": 35.14181511438343,
        "lon": 154.07432855791484,
        "alt_km": 488.15535634849493,
        "timestamp": "2025-12-03T20:47:57.859669+00:00",
        "meta_object_name": "TIANMU-1 15",
        "meta_object_id": "2024-004A",
        "meta_epoch": "2025-12-03T12:46:04.152000",
        "meta_mean_motion": 15.24481304,
        "meta_eccentricity": 0.0005765,
        "meta_inclination": 97.4624,
        "meta_ra_of_asc_node": 159.035,
        "meta_arg_of_pericenter": 335.3372,
        "meta_mean_anomaly": 24.7589,
        "meta_ephemeris_type": 0,
        "meta_classification_type": "U",
        "meta_norad_cat_id": 58700,
        "meta_element_set_no": 999,
        "meta_rev_at_epoch": 10594,
        "meta_bstar": 0.00041093,
        "meta_mean_motion_dot": 0.00010033,
        "meta_mean_motion_ddot": 0,
        "tle_line1": "1 58700U 24004A   25337.53199250  .00010033  00000+0  41093-3 0  9990",
        "tle_line2": "2 58700  97.4624 159.0350 0005765 335.3372  24.7589 15.24481304105942"
      },
      "geometry": {
        "type": "Point",
        "coordinates": [
          154.07432855791484,
          35.14181511438343
        ]
      }
    }
  ]
}